     3.04           N: GNSS NAV DATA    M: MIXED            RINEX VERSION / TYPE
sbf2rin-15.10.3                         20260208 001901 UTC PGM / RUN BY / DATE 
GPSA   2.1420E-08  0.0000E+00 -1.1921E-07  1.1921E-07       IONOSPHERIC CORR    
GPSB   1.3926E+05 -1.3107E+05  6.5536E+04 -1.9661E+05       IONOSPHERIC CORR    
GAL    1.4450E+02 -7.8125E-03 -4.3945E-03  0.0000E+00       IONOSPHERIC CORR    
                                                            COMMENT             
                                                            COMMENT             
                                                            COMMENT             
                                                            COMMENT             
This data is provided as a public service by NASA/JPL.      COMMENT
No warranty is expressed or implied regarding suitability   COMMENT
for use.  For further information, contact:                 COMMENT
ggnops at jpl dot nasa dot gov                              COMMENT
                                                            END OF HEADER       
E26 2026 02 07 22 50 00 2.140614087693E-04 1.087130385713E-11 0.000000000000E+00
     1.120000000000E+02-7.143750000000E+01 2.678683006471E-09-1.269936983367E+00
    -3.267079591751E-06 3.628694685176E-04 8.162111043930E-06 5.440610784531E+03
     6.006000000000E+05 8.940696716309E-08-2.548762289791E+00 9.313225746155E-09
     9.920641089150E-01 1.782812500000E+02-1.013146001918E+00-5.504514999430E-09
    -2.114373786441E-10 2.580000000000E+02 2.404000000000E+03
     3.120000000000E+00 0.000000000000E+00-5.820766091347E-09 0.000000000000E+00
     6.013400000000E+05
E23 2026 02 07 22 50 00-2.451229374856E-05-1.250555214938E-12 0.000000000000E+00
     1.120000000000E+02 1.290000000000E+02 3.057270204718E-09-2.705998012319E+00
     6.090849637985E-06 3.703724360093E-04 9.348616003990E-06 5.440617755890E+03
     6.006000000000E+05-5.587935447693E-09 1.635837408588E+00-1.862645149231E-08
     9.633759123365E-01 1.354062500000E+02 1.741557547662E+00-5.570589180256E-09
     2.210806374674E-10 2.580000000000E+02 2.404000000000E+03
     3.120000000000E+00 0.000000000000E+00-4.656612873077E-10 0.000000000000E+00
     6.017900000000E+05
E29 2026 02 07 23 00 00-1.765679335222E-04-3.552713678801E-12 0.000000000000E+00
     1.130000000000E+02-5.028125000000E+01 3.402998891420E-09-9.991493269228E-01
    -2.453103661537E-06 1.275610411540E-04 5.118548870087E-06 5.440597421646E+03
     6.012000000000E+05 5.215406417847E-08-4.612875642843E-01-3.166496753693E-08
     9.607500533818E-01 2.338750000000E+02 2.997943043950E+00-5.752382466962E-09
    -6.857428496565E-11 5.170000000000E+02 2.404000000000E+03
     3.120000000000E+00 0.000000000000E+00-4.656612873077E-09-4.190951585770E-09
     6.018650000000E+05
E18 2026 02 07 23 00 00 2.427411091048E-03 4.257572072675E-11 0.000000000000E+00
     1.130000000000E+02 1.316875000000E+02 5.326650447800E-09 2.083153980868E+00
     5.772337317467E-06 1.655223096022E-01 5.206093192101E-06 5.289372081757E+03
     6.012000000000E+05-2.611428499222E-06 2.576157154143E+00 3.483146429062E-07
     8.553298417726E-01 2.175937500000E+02 3.044494384600E+00-6.298476642548E-09
     2.428672592533E-11 5.170000000000E+02 2.404000000000E+03
     3.120000000000E+00 1.300000000000E+02-2.793967723846E-09-3.492459654808E-09
     6.018950000000E+05
E29 2026 02 07 23 00 00-1.765687484294E-04-3.552713678801E-12 0.000000000000E+00
     1.130000000000E+02-5.028125000000E+01 3.402998891420E-09-9.991493269228E-01
    -2.453103661537E-06 1.275610411540E-04 5.118548870087E-06 5.440597421646E+03
     6.012000000000E+05 5.215406417847E-08-4.612875642843E-01-3.166496753693E-08
     9.607500533818E-01 2.338750000000E+02 2.997943043950E+00-5.752382466962E-09
    -6.857428496565E-11 2.580000000000E+02 2.404000000000E+03
     3.120000000000E+00 0.000000000000E+00-4.656612873077E-09 0.000000000000E+00
     6.019400000000E+05
E07 2026 02 07 23 00 00-4.367891233414E-05-2.387423592154E-12 0.000000000000E+00
     1.130000000000E+02-4.912500000000E+01 3.359782805583E-09-3.040143576994E+00
    -2.354383468628E-06 2.894382923841E-04 4.844740033150E-06 5.440603258133E+03
     6.012000000000E+05 2.235174179077E-08-4.618022232534E-01-1.117587089539E-08
     9.673860341170E-01 2.393125000000E+02-4.470572495689E-01-5.759882779380E-09
    -3.750156209059E-11 5.170000000000E+02 2.404000000000E+03
     3.120000000000E+00 0.000000000000E+00 3.259629011154E-09 3.958120942116E-09
     6.021020000000E+05
E29 2026 02 07 23 10 00-1.765700872056E-04-3.566924533516E-12 0.000000000000E+00
     1.140000000000E+02-5.040625000000E+01 3.409784888370E-09-9.247165334239E-01
    -2.473592758179E-06 1.275796676055E-04 5.101785063744E-06 5.440597463608E+03
     6.018000000000E+05 5.029141902924E-08-4.612909670318E-01-2.235174179077E-08
     9.607499948651E-01 2.339687500000E+02 2.997896400270E+00-5.758096990709E-09
    -7.071723137082E-11 5.170000000000E+02 2.404000000000E+03
     3.120000000000E+00 0.000000000000E+00-4.656612873077E-09-4.190951585770E-09
     6.024650000000E+05
E18 2026 02 07 23 10 00 2.427436644211E-03 4.257572072675E-11 0.000000000000E+00
     1.140000000000E+02 1.259062500000E+02 5.273433945405E-09 2.164104333346E+00
     5.515292286873E-06 1.655216119252E-01 5.006790161133E-06 5.289373176575E+03
     6.018000000000E+05-2.507120370865E-06 2.576153079916E+00 3.091990947723E-07
     8.553300304890E-01 2.226562500000E+02 3.044496182526E+00-6.261332238192E-09
     1.857220217820E-11 5.170000000000E+02 2.404000000000E+03
     3.120000000000E+00 1.300000000000E+02-2.793967723846E-09-3.492459654808E-09
     6.024650000000E+05
E29 2026 02 07 23 10 00-1.765709021129E-04-3.566924533516E-12 0.000000000000E+00
     1.140000000000E+02-5.040625000000E+01 3.409784888370E-09-9.247165334239E-01
    -2.473592758179E-06 1.275796676055E-04 5.101785063744E-06 5.440597463608E+03
     6.018000000000E+05 5.029141902924E-08-4.612909670318E-01-2.235174179077E-08
     9.607499948651E-01 2.339687500000E+02 2.997896400270E+00-5.758096990709E-09
    -7.071723137082E-11 2.580000000000E+02 2.404000000000E+03
     3.120000000000E+00 0.000000000000E+00-4.656612873077E-09 0.000000000000E+00
     6.025400000000E+05
E07 2026 02 07 23 10 00-4.368042573333E-05-2.387423592154E-12 0.000000000000E+00
     1.140000000000E+02-4.900000000000E+01 3.363354382925E-09-2.965687120795E+00
    -2.335757017136E-06 2.894175704569E-04 4.822388291359E-06 5.440603317261E+03
     6.018000000000E+05 2.235174179077E-08-4.618056772030E-01-1.303851604462E-08
     9.673860048587E-01 2.394687500000E+02-4.471277841641E-01-5.760597094849E-09
    -3.714440435639E-11 5.170000000000E+02 2.404000000000E+03
     3.120000000000E+00 0.000000000000E+00 3.259629011154E-09 3.958120942116E-09
     6.029420000000E+05
E29 2026 02 07 23 20 00-1.765722990967E-04-3.581135388231E-12 0.000000000000E+00
     1.150000000000E+02-5.050000000000E+01 3.416213727586E-09-8.502899441606E-01
    -2.494081854820E-06 1.276026014239E-04 5.081295967102E-06 5.440597509384E+03
     6.024000000000E+05 4.656612873077E-08-4.612943814826E-01-1.676380634308E-08
     9.607499363484E-01 2.340937500000E+02 2.997855972529E+00-5.763097198988E-09
    -7.250302004181E-11 5.170000000000E+02 2.404000000000E+03
     3.120000000000E+00 0.000000000000E+00-4.656612873077E-09-4.190951585770E-09
     6.030650000000E+05
E18 2026 02 07 23 20 00 2.427462255582E-03 4.257572072675E-11 0.000000000000E+00
     1.150000000000E+02 1.188125000000E+02 5.209145553250E-09 2.245054388852E+00
     5.241483449936E-06 1.655206853757E-01 4.757195711136E-06 5.289374614716E+03
     6.024000000000E+05-2.425163984299E-06 2.576149131500E+00 2.980232238770E-07
     8.553301753179E-01 2.296875000000E+02 3.044498254018E+00-6.235974039064E-09
     1.250052069686E-11 5.170000000000E+02 2.404000000000E+03
     3.120000000000E+00 1.300000000000E+02-2.793967723846E-09-3.492459654808E-09
     6.030650000000E+05
E29 2026 02 07 23 20 00-1.765731140040E-04-3.566924533516E-12 0.000000000000E+00
     1.150000000000E+02-5.050000000000E+01 3.416213727586E-09-8.502899441606E-01
    -2.494081854820E-06 1.276026014239E-04 5.081295967102E-06 5.440597509384E+03
     6.024000000000E+05 4.656612873077E-08-4.612943814826E-01-1.676380634308E-08
     9.607499363484E-01 2.340937500000E+02 2.997855972529E+00-5.763097198988E-09
    -7.250302004181E-11 2.580000000000E+02 2.404000000000E+03
     3.120000000000E+00 0.000000000000E+00-4.656612873077E-09 0.000000000000E+00
     6.031400000000E+05
E29 2026 02 07 23 30 00-1.765744527802E-04-3.581135388231E-12 0.000000000000E+00
     1.160000000000E+02-5.059375000000E+01 3.422642566801E-09-7.758824386636E-01
    -2.510845661163E-06 1.276265829802E-04 5.057081580162E-06 5.440597558975E+03
     6.030000000000E+05 4.284083843231E-08-4.612978076367E-01-1.117587089539E-08
     9.607498778316E-01 2.342187500000E+02 2.997834638794E+00-5.767025934064E-09
    -7.321733551020E-11 5.170000000000E+02 2.404000000000E+03
     3.120000000000E+00 0.000000000000E+00-4.656612873077E-09-4.190951585770E-09
     6.036650000000E+05
E18 2026 02 07 23 30 00 2.427487808745E-03 4.256150987203E-11 0.000000000000E+00
     1.160000000000E+02 1.110625000000E+02 5.135928217740E-09 2.326004336103E+00
     4.971399903297E-06 1.655195658095E-01 4.461035132408E-06 5.289376317978E+03
     6.030000000000E+05-2.371147274971E-06 2.576145285489E+00 3.017485141754E-07
     8.553302704075E-01 2.386875000000E+02 3.044500363546E+00-6.220973414227E-09
     6.785996949726E-12 5.170000000000E+02 2.404000000000E+03
     3.120000000000E+00 1.300000000000E+02-2.793967723846E-09-3.492459654808E-09
     6.036650000000E+05
